STARLINK-31252          
1 59083U 24041K   26068.48521130 -.00000986  00000+0 -26340-4 0  9995
2 59083  43.0013 228.6690 0000992 273.3131  86.7607 15.27568610115249
FLOCK 4G-7              
1 62624U 25009R   26068.79996108  .00011422  00000+0  43168-3 0  9991
2 62624  97.3984 150.8270 0001396 336.9783  23.1393 15.27141471 63725
